[{"OBJECT_NAME":"CUBESX-HSE 3 (RS42S)","OBJECT_ID":"2023-091N","EPOCH":"2026-03-09T22:57:25.321248","MEAN_MOTION":15.286147,"ECCENTRICITY":0.00127191,"INCLINATION":97.5203,"RA_OF_ASC_NODE":133.4295,"ARG_OF_PERICENTER":86.5376,"MEAN_ANOMALY":273.7318,"EPHEMERIS_TYPE":0,"CLASSIFICATION_TYPE":"U","NORAD_CAT_ID":57178,"ELEMENT_SET_NO":999,"REV_AT_EPOCH":14925,"BSTAR":0.00059055694,"MEAN_MOTION_DOT":0.00016417,"MEAN_MOTION_DDOT":0},{"OBJECT_NAME":"STARLINK-35624","OBJECT_ID":"2025-240W","EPOCH":"2026-03-09T07:13:58.558080","MEAN_MOTION":15.30210705,"ECCENTRICITY":0.00013583,"INCLINATION":53.1608,"RA_OF_ASC_NODE":64.2741,"ARG_OF_PERICENTER":76.9142,"MEAN_ANOMALY":283.201,"EPHEMERIS_TYPE":0,"CLASSIFICATION_TYPE":"U","NORAD_CAT_ID":66166,"ELEMENT_SET_NO":999,"REV_AT_EPOCH":2193,"BSTAR":0.00083633548,"MEAN_MOTION_DOT":0.00024501,"MEAN_MOTION_DDOT":0}]
